[
    {
        "Altitude(m)": 557154.2391630926,
        "Argument of Periapsis(deg)": 0.033114955553567506,
        "Eccentricity": 0.0,
        "Inclination(deg)": 53.0,
        "Latitude(deg)": 40.96786291370953,
        "Longitude(deg)": -4.584611465653419,
        "Mean Anomaly(deg)": -234.99653566211205,
        "RAAN(deg)": 319.9507168426401,
        "Satellite Name": "Starlink Shell 1 1412",
        "Satellite Number": 1412,
        "Semi-Major Axis(m)": 6931778.249405717,
        "Time(s)": 950
    },
    {
        "Altitude(m)": 557071.9381581014,
        "Argument of Periapsis(deg)": 0.03346353403307874,
        "Eccentricity": 0.0,
        "Inclination(deg)": 53.0,
        "Latitude(deg)": 40.58489887875918,
        "Longitude(deg)": -3.9709631198890714,
        "Mean Anomaly(deg)": -234.36970445855536,
        "RAAN(deg)": 319.9501980725626,
        "Satellite Name": "Starlink Shell 1 1412",
        "Satellite Number": 1412,
        "Semi-Major Axis(m)": 6931778.249405717,
        "Time(s)": 960
    },
    {
        "Altitude(m)": 556989.3222011824,
        "Argument of Periapsis(deg)": 0.03381211251258998,
        "Eccentricity": 0.0,
        "Inclination(deg)": 53.0,
        "Latitude(deg)": 40.19823822977628,
        "Longitude(deg)": -3.3647715739669986,
        "Mean Anomaly(deg)": -233.74287325499859,
        "RAAN(deg)": 319.9496793024851,
        "Satellite Name": "Starlink Shell 1 1412",
        "Satellite Number": 1412,
        "Semi-Major Axis(m)": 6931778.249405717,
        "Time(s)": 970
    },
    {
        "Altitude(m)": 556906.4447248162,
        "Argument of Periapsis(deg)": 0.034160690992101214,
        "Eccentricity": 0.0,
        "Inclination(deg)": 53.0,
        "Latitude(deg)": 39.80797111880283,
        "Longitude(deg)": -2.765920811398762,
        "Mean Anomaly(deg)": -233.1160420514419,
        "RAAN(deg)": 319.94916053240763,
        "Satellite Name": "Starlink Shell 1 1412",
        "Satellite Number": 1412,
        "Semi-Major Axis(m)": 6931778.249405717,
        "Time(s)": 980
    },
    {
        "Altitude(m)": 556823.3595044918,
        "Argument of Periapsis(deg)": 0.034509269471612446,
        "Eccentricity": 0.0,
        "Inclination(deg)": 53.0,
        "Latitude(deg)": 39.41418585347285,
        "Longitude(deg)": -2.174293060342828,
        "Mean Anomaly(deg)": -232.4892108478852,
        "RAAN(deg)": 319.9486417623302,
        "Satellite Name": "Starlink Shell 1 1412",
        "Satellite Number": 1412,
        "Semi-Major Axis(m)": 6931778.249405717,
        "Time(s)": 990
    }
]